{"type": "FeatureCollection", "features": [ {"type": "Feature", "properties": {"norad_id": 66850, "name": "STARLINK-36105", "group": "last-30-days", "lat": 41.244541923089955, "lon": 145.5208058829426, "alt_km": 409.1205050025592, "timestamp": "2025-12-27T02:10:14.908287+00:00", "meta": {"OBJECT_NAME": "STARLINK-36105", "OBJECT_ID": "2025-281C", "EPOCH": "2025-12-26T20:00:01.999008", "MEAN_MOTION": 15.5068909, "ECCENTRICITY": 0.0001123, "INCLINATION": 43.0006, "RA_OF_ASC_NODE": 37.2308, "ARG_OF_PERICENTER": 253.8754, "MEAN_ANOMALY": 213.9671, "EPHEMERIS_TYPE": 0, "CLASSIFICATION_TYPE": "U", "NORAD_CAT_ID": 66850, "ELEMENT_SET_NO": 999, "REV_AT_EPOCH": 365, "BSTAR": -0.003327, "MEAN_MOTION_DOT": -0.00191567, "MEAN_MOTION_DDOT": 0}, "tle": {"line1": "1 66850U 25281C   25360.83335647 -.00191567  00000+0 -33270-2 0  9995", "line2": "2 66850  43.0006  37.2308 0001123 253.8754 213.9671 15.50689090  3650"}}, "geometry": {"type": "Point", "coordinates": [145.5208058829426, 41.244541923089955]}}, {"type": "Feature", "properties": {"norad_id": 66851, "name": "STARLINK-36094", "group": "last-30-days", "lat": 40.78394612420157, "lon": 147.9379860112159, "alt_km": 409.0348144937534, "timestamp": "2025-12-27T02:10:14.908297+00:00", "meta": {"OBJECT_NAME": "STARLINK-36094", "OBJECT_ID": "2025-281D", "EPOCH": "2025-12-26T20:00:01.999008", "MEAN_MOTION": 15.5071655, "ECCENTRICITY": 0.0001197, "INCLINATION": 43.0006, "RA_OF_ASC_NODE": 37.2259, "ARG_OF_PERICENTER": 240.0165, "MEAN_ANOMALY": 229.6888, "EPHEMERIS_TYPE": 0, "CLASSIFICATION_TYPE": "U", "NORAD_CAT_ID": 66851, "ELEMENT_SET_NO": 999, "REV_AT_EPOCH": 365, "BSTAR": -0.0035135, "MEAN_MOTION_DOT": -0.00202216, "MEAN_MOTION_DDOT": 0}, "tle": {"line1": "1 66851U 25281D   25360.83335647 -.00202216  00000+0 -35135-2 0  9992", "line2": "2 66851  43.0006  37.2259 0001197 240.0165 229.6888 15.50716550  3657"}}, "geometry": {"type": "Point", "coordinates": [147.9379860112159, 40.78394612420157]}}, {"type": "Feature", "properties": {"norad_id": 66852, "name": "STARLINK-35992", "group": "last-30-days", "lat": 40.27026109110337, "lon": 150.33528573342198, "alt_km": 408.84094263904353, "timestamp": "2025-12-27T02:10:14.908308+00:00", "meta": {"OBJECT_NAME": "STARLINK-35992", "OBJECT_ID": "2025-281E", "EPOCH": "2025-12-26T20:00:01.999008", "MEAN_MOTION": 15.50676342, "ECCENTRICITY": 4.58e-05, "INCLINATION": 43.0007, "RA_OF_ASC_NODE": 37.2217, "ARG_OF_PERICENTER": 296.6033, "MEAN_ANOMALY": 175.0028, "EPHEMERIS_TYPE": 0, "CLASSIFICATION_TYPE": "U", "NORAD_CAT_ID": 66852, "ELEMENT_SET_NO": 999, "REV_AT_EPOCH": 365, "BSTAR": -0.0021364, "MEAN_MOTION_DOT": -0.00124126, "MEAN_MOTION_DDOT": 0}, "tle": {"line1": "1 66852U 25281E   25360.83335647 -.00124126  00000+0 -21364-2 0  9995", "line2": "2 66852  43.0007  37.2217 0000458 296.6033 175.0028 15.50676342  3657"}}, "geometry": {"type": "Point", "coordinates": [150.33528573342198, 40.27026109110337]}}, {"type": "Feature", "properties": {"norad_id": 66853, "name": "STARLINK-35986", "group": "last-30-days", "lat": 39.69956274745829, "lon": 152.72655514544684, "alt_km": 408.95263439600785, "timestamp": "2025-12-27T02:10:14.908320+00:00", "meta": {"OBJECT_NAME": "STARLINK-35986", "OBJECT_ID": "2025-281F", "EPOCH": "2025-12-26T20:00:01.999008", "MEAN_MOTION": 15.50676553, "ECCENTRICITY": 4.97e-05, "INCLINATION": 43.0008, "RA_OF_ASC_NODE": 37.2169, "ARG_OF_PERICENTER": 302.4034, "MEAN_ANOMALY": 171.1223, "EPHEMERIS_TYPE": 0, "CLASSIFICATION_TYPE": "U", "NORAD_CAT_ID": 66853, "ELEMENT_SET_NO": 999, "REV_AT_EPOCH": 365, "BSTAR": -0.0021594, "MEAN_MOTION_DOT": -0.00125443, "MEAN_MOTION_DDOT": 0}, "tle": {"line1": "1 66853U 25281F   25360.83335647 -.00125443  00000+0 -21594-2 0  9994", "line2": "2 66853  43.0008  37.2169 0000497 302.4034 171.1223 15.50676553  3653"}}, "geometry": {"type": "Point", "coordinates": [152.72655514544684, 39.69956274745829]}}, {"type": "Feature", "properties": {"norad_id": 66854, "name": "STARLINK-36087", "group": "last-30-days", "lat": 39.086594231506425, "lon": 155.05329704359016, "alt_km": 409.0517469217384, "timestamp": "2025-12-27T02:10:14.908332+00:00", "meta": {"OBJECT_NAME": "STARLINK-36087", "OBJECT_ID": "2025-281G", "EPOCH": "2025-12-26T20:00:01.999008", "MEAN_MOTION": 15.50629779, "ECCENTRICITY": 4.68e-05, "INCLINATION": 43.0007, "RA_OF_ASC_NODE": 37.2115, "ARG_OF_PERICENTER": 306.353, "MEAN_ANOMALY": 169.1001, "EPHEMERIS_TYPE": 0, "CLASSIFICATION_TYPE": "U", "NORAD_CAT_ID": 66854, "ELEMENT_SET_NO": 999, "REV_AT_EPOCH": 365, "BSTAR": -0.00095056, "MEAN_MOTION_DOT": -0.00055807, "MEAN_MOTION_DDOT": 0}, "tle": {"line1": "1 66854U 25281G   25360.83335647 -.00055807  00000+0 -95056-3 0  9996", "line2": "2 66854  43.0007  37.2115 0000468 306.3530 169.1001 15.50629779  3655"}}, "geometry": {"type": "Point", "coordinates": [155.05329704359016, 39.086594231506425]}}, {"type": "Feature", "properties": {"norad_id": 66855, "name": "STARLINK-36090", "group": "last-30-days", "lat": 38.428531097425534, "lon": 157.33756752864835, "alt_km": 409.2834418094035, "timestamp": "2025-12-27T02:10:14.908342+00:00", "meta": {"OBJECT_NAME": "STARLINK-36090", "OBJECT_ID": "2025-281H", "EPOCH": "2025-12-26T20:00:01.999008", "MEAN_MOTION": 15.50568853, "ECCENTRICITY": 6.3e-05, "INCLINATION": 43.0008, "RA_OF_ASC_NODE": 37.2064, "ARG_OF_PERICENTER": 300.9737, "MEAN_ANOMALY": 176.411, "EPHEMERIS_TYPE": 0, "CLASSIFICATION_TYPE": "U", "NORAD_CAT_ID": 66855, "ELEMENT_SET_NO": 999, "REV_AT_EPOCH": 352, "BSTAR": 0.0008665, "MEAN_MOTION_DOT": 0.00050803, "MEAN_MOTION_DDOT": 0}, "tle": {"line1": "1 66855U 25281H   25360.83335647  .00050803  00000+0  86650-3 0  9996", "line2": "2 66855  43.0008  37.2064 0000630 300.9737 176.4110 15.50568853  3523"}}, "geometry": {"type": "Point", "coordinates": [157.33756752864835, 38.428531097425534]}}, {"type": "Feature", "properties": {"norad_id": 66856, "name": "STARLINK-36072", "group": "last-30-days", "lat": 37.69944432077909, "lon": 159.66255958198826, "alt_km": 409.55881899559336, "timestamp": "2025-12-27T02:10:14.908354+00:00", "meta": {"OBJECT_NAME": "STARLINK-36072", "OBJECT_ID": "2025-281J", "EPOCH": "2025-12-26T20:00:01.999008", "MEAN_MOTION": 15.50661362, "ECCENTRICITY": 0.0001053, "INCLINATION": 43.0007, "RA_OF_ASC_NODE": 37.2016, "ARG_OF_PERICENTER": 257.8917, "MEAN_ANOMALY": 221.4297, "EPHEMERIS_TYPE": 0, "CLASSIFICATION_TYPE": "U", "NORAD_CAT_ID": 66856, "ELEMENT_SET_NO": 999, "REV_AT_EPOCH": 365, "BSTAR": -0.0021938, "MEAN_MOTION_DOT": -0.00127339, "MEAN_MOTION_DDOT": 0}, "tle": {"line1": "1 66856U 25281J   25360.83335647 -.00127339  00000+0 -21938-2 0  9995", "line2": "2 66856  43.0007  37.2016 0001053 257.8917 221.4297 15.50661362  3650"}}, "geometry": {"type": "Point", "coordinates": [159.66255958198826, 37.69944432077909]}}, {"type": "Feature", "properties": {"norad_id": 66857, "name": "STARLINK-36083", "group": "last-30-days", "lat": 36.943753354019066, "lon": 161.88892167467972, "alt_km": 409.67716845755604, "timestamp": "2025-12-27T02:10:14.908365+00:00", "meta": {"OBJECT_NAME": "STARLINK-36083", "OBJECT_ID": "2025-281K", "EPOCH": "2025-12-26T20:00:01.999008", "MEAN_MOTION": 15.50665439, "ECCENTRICITY": 0.0001131, "INCLINATION": 43.0006, "RA_OF_ASC_NODE": 37.1969, "ARG_OF_PERICENTER": 253.6798, "MEAN_ANOMALY": 227.5687, "EPHEMERIS_TYPE": 0, "CLASSIFICATION_TYPE": "U", "NORAD_CAT_ID": 66857, "ELEMENT_SET_NO": 999, "REV_AT_EPOCH": 365, "BSTAR": -0.0024299, "MEAN_MOTION_DOT": -0.00140788, "MEAN_MOTION_DDOT": 0}, "tle": {"line1": "1 66857U 25281K   25360.83335647 -.00140788  00000+0 -24299-2 0  9992", "line2": "2 66857  43.0006  37.1969 0001131 253.6798 227.5687 15.50665439  3653"}}, "geometry": {"type": "Point", "coordinates": [161.88892167467972, 36.943753354019066]}}, {"type": "Feature", "properties": {"norad_id": 66858, "name": "STARLINK-35118", "group": "last-30-days", "lat": 36.15252493255467, "lon": 164.05646029028756, "alt_km": 409.788321417911, "timestamp": "2025-12-27T02:10:14.908377+00:00", "meta": {"OBJECT_NAME": "STARLINK-35118", "OBJECT_ID": "2025-281L", "EPOCH": "2025-12-26T20:00:01.999008", "MEAN_MOTION": 15.50632043, "ECCENTRICITY": 0.000127, "INCLINATION": 43.0007, "RA_OF_ASC_NODE": 37.192, "ARG_OF_PERICENTER": 245.4675, "MEAN_ANOMALY": 237.7181, "EPHEMERIS_TYPE": 0, "CLASSIFICATION_TYPE": "U", "NORAD_CAT_ID": 66858, "ELEMENT_SET_NO": 999, "REV_AT_EPOCH": 343, "BSTAR": -0.0016891, "MEAN_MOTION_DOT": -0.00098383, "MEAN_MOTION_DDOT": 0}, "tle": {"line1": "1 66858U 25281L   25360.83335647 -.00098383  00000+0 -16891-2 0  9995", "line2": "2 66858  43.0007  37.1920 0001270 245.4675 237.7181 15.50632043  3432"}}, "geometry": {"type": "Point", "coordinates": [164.05646029028756, 36.15252493255467]}}, {"type": "Feature", "properties": {"norad_id": 66859, "name": "STARLINK-35646", "group": "last-30-days", "lat": 35.30248949820308, "lon": 166.22863081001358, "alt_km": 410.1064172697652, "timestamp": "2025-12-27T02:10:14.908387+00:00", "meta": {"OBJECT_NAME": "STARLINK-35646", "OBJECT_ID": "2025-281M", "EPOCH": "2025-12-26T20:00:01.999008", "MEAN_MOTION": 15.50614649, "ECCENTRICITY": 0.0001114, "INCLINATION": 43.0004, "RA_OF_ASC_NODE": 37.1866, "ARG_OF_PERICENTER": 266.07, "MEAN_ANOMALY": 219.09, "EPHEMERIS_TYPE": 0, "CLASSIFICATION_TYPE": "U", "NORAD_CAT_ID": 66859, "ELEMENT_SET_NO": 999, "REV_AT_EPOCH": 365, "BSTAR": -0.0019576, "MEAN_MOTION_DOT": -0.00113671, "MEAN_MOTION_DDOT": 0}, "tle": {"line1": "1 66859U 25281M   25360.83335647 -.00113671  00000+0 -19576-2 0  9997", "line2": "2 66859  43.0004  37.1866 0001114 266.0700 219.0900 15.50614649  3652"}}, "geometry": {"type": "Point", "coordinates": [166.22863081001358, 35.30248949820308]}}]}